IRIDIUM 155             
1 43573U 18061E   21046.03451942  .00000095  00000-0  26810-4 0  9994
2 43573  86.4013 150.8982 0001707 107.4688 252.6695 14.34218789134132
IRIDIUM 154             
1 43574U 18061F   21046.01549757  .00000096  00000-0  27228-4 0  9990
2 43574  86.4017 150.9471 0002249  90.6977 269.4476 14.34219372134173
IRIDIUM 163             
1 43575U 18061G   21045.57786072  .00000094  00000-0  26504-4 0  9998
2 43575  86.4016 151.1043 0002657 102.5910 257.5584 14.34219393134085
IRIDIUM 156             
1 43576U 18061H   21046.04087266  .00000093  00000-0  26049-4 0  9994
2 43576  86.4015 150.9160 0002226 107.0388 253.1051 14.34218682134130
IRIDIUM 164             
1 43577U 18061J   21046.02184854  .00000097  00000-0  27561-4 0  9998
2 43577  86.4017 150.9347 0002341  93.9971 266.1492 14.34218573134186
IRIDIUM 159             
1 43578U 18061K   21046.19942982  .00000094  00000-0  26547-4 0  9991
2 43578  86.4015 150.8383 0002242  93.1890 266.9562 14.34216736134170
IRIDIUM 180             
1 43922U 19002A   21046.05939448  .00000070  00000-0  17871-4 0  9992
2 43922  86.3932  87.7440 0003128  81.2769 278.8781 14.34217038109802
IRIDIUM 176             
1 43923U 19002B   21045.59282418  .00000134  00000-0  17304-4 0  9991
2 43923  86.6067  87.9711 0002467  88.2141 271.9358 14.72252506112555
IRIDIUM 168             
1 43924U 19002C   21045.56467642  .00000027  00000-0  24463-5 0  9999
2 43924  86.3935  87.9732 0002365  87.2176 272.9291 14.34218571109672
IRIDIUM 173             
1 43925U 19002D   21045.83106283  .00000084  00000-0  22998-4 0  9994
2 43925  86.3930  87.8298 0002399  89.9291 270.2180 14.34218875109695
IRIDIUM 169             
1 43926U 19002E   21046.13420878  .00000097  00000-0  25078-4 0  9994
2 43926  86.4228 119.3144 0002790 272.6707  87.4172 14.38604217110151
IRIDIUM 172             
1 43927U 19002F   21046.52239867  .00000072  00000-0  18648-4 0  9992
2 43927  86.3931  87.5424 0002447  88.1617 271.9859 14.34216326109806
IRIDIUM 175             
1 43928U 19002G   21046.06240865  .00000133  00000-0  17219-4 0  9993
2 43928  86.6050  87.6185 0002911 102.9937 257.1605 14.72253995112616
IRIDIUM 171             
1 43929U 19002H   21046.01498576  .00000065  00000-0  16256-4 0  9997
2 43929  86.3940  87.8447 0002351  87.0486 273.0979 14.34219581109725
IRIDIUM 170             
1 43930U 19002J   21046.00683451  .00000142  00000-0  18571-4 0  9994
2 43930  86.6066  87.8045 0002677  93.4701 266.6823 14.72252657112627
IRIDIUM 167             
1 43931U 19002K   21045.72957158  .00000079  00000-0  21082-4 0  9991
2 43931  86.3933  87.8796 0002918  81.7892 278.3635 14.34219449109683
